NORAD_CAT_ID,OBJECT_NAME,OBJECT_TYPE,EPOCH,MEAN_MOTION,ECCENTRICITY,INCLINATION,RA_OF_ASC_NODE,ARG_OF_PERICENTER,MEAN_ANOMALY,BSTAR,MEAN_MOTION_DOT,MEAN_MOTION_DDOT,TLE_LINE0,TLE_LINE1,TLE_LINE2,SEMIMAJOR_AXIS,PERIOD,APOGEE,PERIGEE,DECAYED
53859.0,STARLINK-4790,PAYLOAD,2023-02-02 19:56:44,15.08837912,0.000104,53.2194,325.5202,88.4241,271.6871,0.00011845,1.598e-05,0.0,0 STARLINK-4790,1 53859U 22114AT  23033.83107550  .00001598  00000-0  11845-3 0  9995,2 53859  53.2194 325.5202 0001040  88.4241 271.6871 15.08837912 21781,6917.887,95.438,540.471,539.032,0.0
53859.0,STARLINK-4790,PAYLOAD,2023-02-03 05:29:03,15.08852129,0.0001107,53.2188,323.7358,87.2031,272.9088,0.00026382,3.915e-05,0.0,0 STARLINK-4790,1 53859U 22114AT  23034.22850789  .00003915  00000-0  26382-3 0  9995,2 53859  53.2188 323.7358 0001107  87.2031 272.9088 15.08852129 21842,6917.843,95.437,540.474,538.943,0.0
53859.0,STARLINK-4790,PAYLOAD,2023-02-04 05:19:50,15.08839658,0.0001039,53.2178,319.2743,85.6478,274.4633,0.00015002,2.101e-05,0.0,0 STARLINK-4790,1 53859U 22114AT  23035.22211584  .00002101  00000-0  15002-3 0  9993,2 53859  53.2178 319.2743 0001039  85.6478 274.4633 15.08839658 21991,6917.881,95.438,540.465,539.028,0.0
53859.0,STARLINK-4790,PAYLOAD,2023-02-04 19:38:19,15.08833349,0.0001087,53.2187,316.5994,96.8588,263.2528,-0.00012754,-2.317e-05,0.0,0 STARLINK-4790,1 53859U 22114AT  23035.81827953 -.00002317  00000-0 -12754-3 0  9993,2 53859  53.2187 316.5994 0001087  96.8588 263.2528 15.08833349 22629,6917.901,95.438,540.518,539.014,0.0
53859.0,STARLINK-4790,PAYLOAD,2023-02-05 03:35:15,15.0883453,9.78e-05,53.218,315.1118,89.0914,271.019,1.5179e-06,-2.64e-06,0.0,0 STARLINK-4790,1 53859U 22114AT  23036.14948209 -.00000264  00000-0  15179-5 0  9992,2 53859  53.2180 315.1118 0000978  89.0914 271.0190 15.08834530 22131,6917.897,95.438,540.439,539.086,0.0
53859.0,STARLINK-4790,PAYLOAD,2023-02-05 22:39:52,15.08853759,0.0001018,53.2182,311.5445,91.96,268.1509,6.3267e-05,7.2e-06,0.0,0 STARLINK-4790,1 53859U 22114AT  23036.94435788  .00000720  00000-0  63267-4 0  9999,2 53859  53.2182 311.5445 0001018  91.9600 268.1509 15.08853759 22793,6917.838,95.437,540.408,538.999,0.0
53859.0,STARLINK-4790,PAYLOAD,2023-02-06 03:26:02,15.08856604,0.0001114,53.2174,310.652,92.2209,267.8911,0.00078718,0.00012268,0.0,0 STARLINK-4790,1 53859U 22114AT  23037.14308073  .00012268  00000-0  78718-3 0  9994,2 53859  53.2174 310.6520 0001114  92.2209 267.8911 15.08856604 22283,6917.83,95.437,540.465,538.924,0.0
53859.0,STARLINK-4790,PAYLOAD,2023-02-06 17:44:30,15.08854222,0.0001268,53.2171,307.9767,84.883,275.2307,0.00056436,8.709e-05,0.0,0 STARLINK-4790,1 53859U 22114AT  23037.73924087  .00008709  00000-0  56436-3 0  9996,2 53859  53.2171 307.9767 0001268  84.8830 275.2307 15.08854222 22915,6917.837,95.437,540.579,538.825,0.0
53859.0,STARLINK-4790,PAYLOAD,2023-02-06 22:30:39,15.08857585,0.0001328,53.2179,307.0853,90.6254,269.4891,0.00055182,8.509e-05,0.0,0 STARLINK-4790,1 53859U 22114AT  23037.93795844  .00008509  00000-0  55182-3 0  9990,2 53859  53.2179 307.0853 0001328  90.6254 269.4891 15.08857585 22404,6917.827,95.436,540.61,538.773,0.0
53859.0,STARLINK-4790,PAYLOAD,2023-02-07 03:16:48,15.08868631,0.0001272,53.217,306.1919,85.488,274.6257,0.00096932,0.00015184,0.0,0 STARLINK-4790,1 53859U 22114AT  23038.13667488  .00015184  00000-0  96932-3 0  9990,2 53859  53.2170 306.1919 0001272  85.4880 274.6257 15.08868631 22973,6917.793,95.436,540.538,538.778,0.0
53859.0,STARLINK-4790,PAYLOAD,2023-02-07 22:21:26,15.08847306,0.000112,53.2179,302.6246,85.5751,274.5369,0.00050711,7.794e-05,0.0,0 STARLINK-4790,1 53859U 22114AT  23038.93155547  .00007794  00000-0  50711-3 0  9999,2 53859  53.2179 302.6246 0001120  85.5751 274.5369 15.08847306 23099,6917.858,95.437,540.498,538.948,0.0
53859.0,STARLINK-4790,PAYLOAD,2023-02-07 23:56:49,15.08853428,0.0001022,53.2176,302.327,91.2238,268.8871,0.00068652,0.00010659,0.0,0 STARLINK-4790,1 53859U 22114AT  23038.99779389  .00010659  00000-0  68652-3 0  9998,2 53859  53.2176 302.3270 0001022  91.2238 268.8871 15.08853428 22562,6917.839,95.437,540.411,538.997,0.0
53859.0,STARLINK-4790,PAYLOAD,2023-02-08 22:12:13,15.08839682,9.44e-05,53.2178,298.1633,112.6531,247.4561,0.0011246,0.00017655,0.0,0 STARLINK-4790,1 53859U 22114AT  23039.92515934  .00017655  00000-0  11246-2 0  9995,2 53859  53.2178 298.1633 0000944 112.6531 247.4561 15.08839682 23246,6917.881,95.438,540.399,539.093,0.0
53859.0,STARLINK-4790,PAYLOAD,2023-02-09 02:58:23,15.08849792,8.43e-05,53.2178,297.2708,87.3884,272.7205,0.0015786,0.00024931,0.0,0 STARLINK-4790,1 53859U 22114AT  23040.12388035  .00024931  00000-0  15786-2 0  9997,2 53859  53.2178 297.2708 0000843  87.3884 272.7205 15.08849792 22738,6917.85,95.437,540.299,539.132,0.0
53859.0,STARLINK-4790,PAYLOAD,2023-02-09 20:27:38,15.08847633,7.03e-05,53.2176,294.0,115.2724,244.8341,0.0013554,0.00021353,0.0,0 STARLINK-4790,1 53859U 22114AT  23040.85252338  .00021353  00000-0  13554-2 0  9999,2 53859  53.2176 294.0000 0000703 115.2724 244.8341 15.08847633 23380,6917.857,95.437,540.208,539.236,0.0
53859.0,STARLINK-4790,PAYLOAD,2023-02-10 01:13:47,15.08855766,9.9e-05,53.2179,293.1076,49.8851,310.2228,0.0014491,0.0002286,0.0,0 STARLINK-4790,1 53859U 22114AT  23041.05124335  .00022860  00000-0  14491-2 0  9992,2 53859  53.2179 293.1076 0000990  49.8851 310.2228 15.08855766 22878,6917.832,95.437,540.382,539.012,0.0
53859.0,STARLINK-4790,PAYLOAD,2023-02-10 02:49:10,15.08858453,9.32e-05,53.2179,292.8098,64.2014,295.9074,0.0018569,0.00029403,0.0,0 STARLINK-4790,1 53859U 22114AT  23041.11748359  .00029403  00000-0  18569-2 0  9997,2 53859  53.2179 292.8098 0000932  64.2014 295.9074 15.08858453 23422,6917.824,95.436,540.334,539.044,0.0
53859.0,STARLINK-4790,PAYLOAD,2023-02-10 23:29:11,15.08858885,0.000149,53.2174,288.9429,63.4954,296.6191,0.0010958,0.00017204,0.0,0 STARLINK-4790,1 53859U 22114AT  23041.97860155  .00017204  00000-0  10958-2 0  9990,2 53859  53.2174 288.9429 0001490  63.4954 296.6191 15.08858885 23017,6917.823,95.436,540.718,538.657,0.0
53859.0,STARLINK-4790,PAYLOAD,2023-02-11 16:58:25,15.08843809,8.03e-05,53.2175,285.6731,34.1949,325.9095,0.00085109,0.00013285,0.0,0 STARLINK-4790,1 53859U 22114AT  23042.70724375  .00013285  00000-0  85109-3 0  9991,2 53859  53.2175 285.6731 0000803  34.1949 325.9095 15.08843809 23664,6917.869,95.437,540.289,539.178,0.0
53859.0,STARLINK-4790,PAYLOAD,2023-02-11 23:19:58,15.08839455,8.93e-05,53.2176,284.4834,54.0621,306.0454,0.00061399,9.497e-05,0.0,0 STARLINK-4790,1 53859U 22114AT  23042.97220535  .00009497  00000-0  61399-3 0  9994,2 53859  53.2176 284.4834 0000893  54.0621 306.0454 15.08839455 23169,6917.882,95.438,540.365,539.129,0.0
53859.0,STARLINK-4790,PAYLOAD,2023-02-12 08:52:17,15.0882775,0.0001433,53.2172,282.6989,87.4096,272.706,7.0851e-05,8.39e-06,0.0,0 STARLINK-4790,1 53859U 22114AT  23043.36964883  .00000839  00000-0  70851-4 0  9994,2 53859  53.2172 282.6989 0001433  87.4096 272.7060 15.08827750 23227,6917.918,95.438,540.774,538.791,0.0
53859.0,STARLINK-4790,PAYLOAD,2023-02-13 08:43:05,15.08834558,0.0001182,53.2158,278.2378,77.4401,282.6723,0.00037774,5.728e-05,0.0,0 STARLINK-4790,1 53859U 22114AT  23044.36325432  .00005728  00000-0  37774-3 0  9994,2 53859  53.2158 278.2378 0001182  77.4401 282.6723 15.08834558 23910,6917.897,95.438,540.58,538.944,0.0
53859.0,STARLINK-4790,PAYLOAD,2023-02-14 00:36:56,15.08842408,0.0001164,53.2174,275.2659,79.8228,280.2895,0.00033321,5.019e-05,0.0,0 STARLINK-4790,1 53859U 22114AT  23045.02565402  .00005019  00000-0  33321-3 0  9998,2 53859  53.2174 275.2659 0001164  79.8228 280.2895 15.08842408 23478,6917.873,95.437,540.543,538.933,0.0
53859.0,STARLINK-4790,PAYLOAD,2023-02-14 14:55:24,15.08843941,0.0001238,53.2157,272.5903,79.5344,280.5788,0.00032066,4.82e-05,0.0,0 STARLINK-4790,1 53859U 22114AT  23045.62181522  .00004820  00000-0  32066-3 0  9995,2 53859  53.2157 272.5903 0001238  79.5344 280.5788 15.08843941 24107,6917.868,95.437,540.59,538.877,0.0
53859.0,STARLINK-4790,PAYLOAD,2023-02-15 02:03:06,15.08849666,0.000134,53.2161,270.5089,78.8877,281.2266,0.00033962,5.123e-05,0.0,0 STARLINK-4790,1 53859U 22114AT  23046.08549249  .00005123  00000-0  33962-3 0  9993,2 53859  53.2161 270.5089 0001340  78.8877 281.2266 15.08849666 23638,6917.851,95.437,540.643,538.789,0.0
53859.0,STARLINK-4790,PAYLOAD,2023-02-15 08:24:39,15.08835696,0.0001257,53.2178,269.3197,72.7901,287.3228,-7.6633e-06,-4.1e-06,0.0,0 STARLINK-4790,1 53859U 22114AT  23046.35045626 -.00000410  00000-0 -76633-5 0  9993,2 53859  53.2178 269.3197 0001257  72.7901 287.3228 15.08835696 23677,6917.894,95.438,540.628,538.889,0.0
53859.0,STARLINK-4790,PAYLOAD,2023-02-15 21:07:44,15.08851577,0.0001295,53.2148,266.9407,75.8268,284.2868,9.7912e-05,1.271e-05,0.0,0 STARLINK-4790,1 53859U 22114AT  23046.88037168  .00001271  00000-0  97912-4 0  9999,2 53859  53.2148 266.9407 0001295  75.8268 284.2868 15.08851577 23754,6917.845,95.437,540.606,538.814,0.0
53859.0,STARLINK-4790,PAYLOAD,2023-02-16 14:36:58,15.08846874,0.000144,53.2162,263.6698,87.8097,272.306,0.00010633,1.405e-05,0.0,0 STARLINK-4790,1 53859U 22114AT  23047.60901004  .00001405  00000-0  10633-3 0  9992,2 53859  53.2162 263.6698 0001440  87.8097 272.3060 15.08846874 24400,6917.859,95.437,540.721,538.728,0.0
53859.0,STARLINK-4790,PAYLOAD,2023-02-16 20:58:31,15.0884588,0.0001318,53.2175,262.4816,78.5772,281.5368,6.4808e-05,7.44e-06,0.0,0 STARLINK-4790,1 53859U 22114AT  23047.87396992  .00000744  00000-0  64808-4 0  9994,2 53859  53.2175 262.4816 0001318  78.5772 281.5368 15.08845880 24447,6917.862,95.437,540.639,538.816,0.0
53859.0,STARLINK-4790,PAYLOAD,2023-02-17 00:09:17,15.08842588,0.0001466,53.2149,261.8849,81.8806,278.2353,0.00019002,2.738e-05,0.0,0 STARLINK-4790,1 53859U 22114AT  23048.00645158  .00002738  00000-0  19002-3 0  9991,2 53859  53.2149 261.8849 0001466  81.8806 278.2353 15.08842588 23927,6917.872,95.437,540.752,538.723,0.0
